[{"OBJECT_NAME":"FENGYUN 1C DEB","OBJECT_ID":"1999-025BVW","EPOCH":"2026-03-05T23:15:16.770240","MEAN_MOTION":14.36033858,"ECCENTRICITY":0.00900298,"INCLINATION":98.3845,"RA_OF_ASC_NODE":71.5365,"ARG_OF_PERICENTER":34.4718,"MEAN_ANOMALY":355.7838,"EPHEMERIS_TYPE":0,"CLASSIFICATION_TYPE":"U","NORAD_CAT_ID":31482,"ELEMENT_SET_NO":999,"REV_AT_EPOCH":98324,"BSTAR":0.0008915451,"MEAN_MOTION_DOT":2.672e-5,"MEAN_MOTION_DDOT":0},{"OBJECT_NAME":"FENGYUN 1C DEB","OBJECT_ID":"1999-025BVX","EPOCH":"2026-03-06T05:08:01.176000","MEAN_MOTION":14.17134056,"ECCENTRICITY":0.01208901,"INCLINATION":102.5078,"RA_OF_ASC_NODE":53.8801,"ARG_OF_PERICENTER":13.3017,"MEAN_ANOMALY":57.0709,"EPHEMERIS_TYPE":0,"CLASSIFICATION_TYPE":"U","NORAD_CAT_ID":31483,"ELEMENT_SET_NO":999,"REV_AT_EPOCH":95888,"BSTAR":0.0040471184,"MEAN_MOTION_DOT":8.698e-5,"MEAN_MOTION_DDOT":0},{"OBJECT_NAME":"FENGYUN 1C DEB","OBJECT_ID":"1999-025BVY","EPOCH":"2026-03-06T09:06:56.395296","MEAN_MOTION":14.56033039,"ECCENTRICITY":0.0072698,"INCLINATION":101.8102,"RA_OF_ASC_NODE":40.5192,"ARG_OF_PERICENTER":288.0058,"MEAN_ANOMALY":71.3213,"EPHEMERIS_TYPE":0,"CLASSIFICATION_TYPE":"U","NORAD_CAT_ID":31484,"ELEMENT_SET_NO":999,"REV_AT_EPOCH":65452,"BSTAR":0.0065872662,"MEAN_MOTION_DOT":0.0003012,"MEAN_MOTION_DDOT":0},{"OBJECT_NAME":"FENGYUN 1C DEB","OBJECT_ID":"1999-025BVZ","EPOCH":"2026-03-05T13:06:19.924416","MEAN_MOTION":13.40587057,"ECCENTRICITY":0.0443083,"INCLINATION":102.7218,"RA_OF_ASC_NODE":278.0167,"ARG_OF_PERICENTER":139.7543,"MEAN_ANOMALY":223.7278,"EPHEMERIS_TYPE":0,"CLASSIFICATION_TYPE":"U","NORAD_CAT_ID":31485,"ELEMENT_SET_NO":999,"REV_AT_EPOCH":91554,"BSTAR":0.0026303,"MEAN_MOTION_DOT":2.512e-5,"MEAN_MOTION_DDOT":0},{"OBJECT_NAME":"FENGYUN 1C DEB","OBJECT_ID":"1999-025BWB","EPOCH":"2026-02-19T01:11:19.218336","MEAN_MOTION":13.98093462,"ECCENTRICITY":0.01185715,"INCLINATION":102.4159,"RA_OF_ASC_NODE":247.3023,"ARG_OF_PERICENTER":143.4514,"MEAN_ANOMALY":7.723,"EPHEMERIS_TYPE":0,"CLASSIFICATION_TYPE":"U","NORAD_CAT_ID":31487,"ELEMENT_SET_NO":999,"REV_AT_EPOCH":95366,"BSTAR":0.00099543029,"MEAN_MOTION_DOT":1.431e-5,"MEAN_MOTION_DDOT":0},{"OBJECT_NAME":"FENGYUN 1C DEB","OBJECT_ID":"1999-025BWE","EPOCH":"2026-03-06T04:50:35.672928","MEAN_MOTION":14.17870998,"ECCENTRICITY":0.00530528,"INCLINATION":99.3036,"RA_OF_ASC_NODE":342.7045,"ARG_OF_PERICENTER":31.2961,"MEAN_ANOMALY":329.1352,"EPHEMERIS_TYPE":0,"CLASSIFICATION_TYPE":"U","NORAD_CAT_ID":31491,"ELEMENT_SET_NO":999,"REV_AT_EPOCH":64910,"BSTAR":0.0020026908,"MEAN_MOTION_DOT":4.102e-5,"MEAN_MOTION_DDOT":0},{"OBJECT_NAME":"FENGYUN 1C DEB","OBJECT_ID":"1999-025BWF","EPOCH":"2026-03-05T10:50:11.839488","MEAN_MOTION":14.75857135,"ECCENTRICITY":0.0057354,"INCLINATION":98.86,"RA_OF_ASC_NODE":242.9635,"ARG_OF_PERICENTER":112.7341,"MEAN_ANOMALY":247.9942,"EPHEMERIS_TYPE":0,"CLASSIFICATION_TYPE":"U","NORAD_CAT_ID":31492,"ELEMENT_SET_NO":999,"REV_AT_EPOCH":97724,"BSTAR":0.0043143,"MEAN_MOTION_DOT":0.00030474,"MEAN_MOTION_DDOT":0},{"OBJECT_NAME":"FENGYUN 1C DEB","OBJECT_ID":"1999-025BWG","EPOCH":"2026-03-06T02:48:20.642112","MEAN_MOTION":13.93222755,"ECCENTRICITY":0.01185201,"INCLINATION":100.1443,"RA_OF_ASC_NODE":23.9017,"ARG_OF_PERICENTER":317.0868,"MEAN_ANOMALY":42.1087,"EPHEMERIS_TYPE":0,"CLASSIFICATION_TYPE":"U","NORAD_CAT_ID":31493,"ELEMENT_SET_NO":999,"REV_AT_EPOCH":61027,"BSTAR":0.0011150072,"MEAN_MOTION_DOT":1.488e-5,"MEAN_MOTION_DDOT":0},{"OBJECT_NAME":"FENGYUN 1C DEB","OBJECT_ID":"1999-025BWJ","EPOCH":"2026-03-04T10:46:29.475264","MEAN_MOTION":14.2980556,"ECCENTRICITY":0.00261044,"INCLINATION":99.1161,"RA_OF_ASC_NODE":305.4172,"ARG_OF_PERICENTER":305.4864,"MEAN_ANOMALY":54.3881,"EPHEMERIS_TYPE":0,"CLASSIFICATION_TYPE":"U","NORAD_CAT_ID":31495,"ELEMENT_SET_NO":999,"REV_AT_EPOCH":64558,"BSTAR":0.0016110356,"MEAN_MOTION_DOT":4.109e-5,"MEAN_MOTION_DDOT":0},{"OBJECT_NAME":"FENGYUN 1C DEB","OBJECT_ID":"1999-025BWL","EPOCH":"2026-03-04T05:24:47.357568","MEAN_MOTION":14.39361247,"ECCENTRICITY":0.01689826,"INCLINATION":98.3806,"RA_OF_ASC_NODE":49.9431,"ARG_OF_PERICENTER":97.9546,"MEAN_ANOMALY":329.9541,"EPHEMERIS_TYPE":0,"CLASSIFICATION_TYPE":"U","NORAD_CAT_ID":31497,"ELEMENT_SET_NO":999,"REV_AT_EPOCH":98727,"BSTAR":0.000269432,"MEAN_MOTION_DOT":9.43e-6,"MEAN_MOTION_DDOT":0},{"OBJECT_NAME":"FENGYUN 1C DEB","OBJECT_ID":"1999-025BWM","EPOCH":"2026-03-06T08:54:42.025536","MEAN_MOTION":13.77495481,"ECCENTRICITY":0.02175913,"INCLINATION":98.4926,"RA_OF_ASC_NODE":32.881,"ARG_OF_PERICENTER":279.6829,"MEAN_ANOMALY":77.9809,"EPHEMERIS_TYPE":0,"CLASSIFICATION_TYPE":"U","NORAD_CAT_ID":31498,"ELEMENT_SET_NO":999,"REV_AT_EPOCH":93885,"BSTAR":0.0022888676,"MEAN_MOTION_DOT":2.675e-5,"MEAN_MOTION_DDOT":0},{"OBJECT_NAME":"FENGYUN 1C DEB","OBJECT_ID":"1999-025BWW","EPOCH":"2026-03-06T13:23:56.444352","MEAN_MOTION":14.52572845,"ECCENTRICITY":0.01163752,"INCLINATION":98.1836,"RA_OF_ASC_NODE":100.7949,"ARG_OF_PERICENTER":179.0134,"MEAN_ANOMALY":337.9609,"EPHEMERIS_TYPE":0,"CLASSIFICATION_TYPE":"U","NORAD_CAT_ID":31507,"ELEMENT_SET_NO":999,"REV_AT_EPOCH":99237,"BSTAR":0.00052459429,"MEAN_MOTION_DOT":2.296e-5,"MEAN_MOTION_DDOT":0},{"OBJECT_NAME":"FENGYUN 1C DEB","OBJECT_ID":"1999-025BWX","EPOCH":"2026-03-06T06:19:32.899008","MEAN_MOTION":14.65640139,"ECCENTRICITY":0.00308508,"INCLINATION":98.6265,"RA_OF_ASC_NODE":182.7628,"ARG_OF_PERICENTER":71.6944,"MEAN_ANOMALY":288.761,"EPHEMERIS_TYPE":0,"CLASSIFICATION_TYPE":"U","NORAD_CAT_ID":31508,"ELEMENT_SET_NO":999,"REV_AT_EPOCH":98146,"BSTAR":0.0031765883,"MEAN_MOTION_DOT":0.00017374,"MEAN_MOTION_DDOT":0},{"OBJECT_NAME":"FENGYUN 1C DEB","OBJECT_ID":"1999-025BWY","EPOCH":"2026-03-06T13:42:41.369760","MEAN_MOTION":13.95415175,"ECCENTRICITY":0.0195348,"INCLINATION":99.0209,"RA_OF_ASC_NODE":188.0564,"ARG_OF_PERICENTER":349.0912,"MEAN_ANOMALY":10.6043,"EPHEMERIS_TYPE":0,"CLASSIFICATION_TYPE":"U","NORAD_CAT_ID":31509,"ELEMENT_SET_NO":999,"REV_AT_EPOCH":95131,"BSTAR":0.001589264,"MEAN_MOTION_DOT":2.484e-5,"MEAN_MOTION_DDOT":0},{"OBJECT_NAME":"FENGYUN 1C DEB","OBJECT_ID":"1999-025BWZ","EPOCH":"2026-03-05T19:39:46.279296","MEAN_MOTION":14.24785896,"ECCENTRICITY":0.00388859,"INCLINATION":98.558,"RA_OF_ASC_NODE":66.8825,"ARG_OF_PERICENTER":87.4779,"MEAN_ANOMALY":35.2114,"EPHEMERIS_TYPE":0,"CLASSIFICATION_TYPE":"U","NORAD_CAT_ID":31510,"ELEMENT_SET_NO":999,"REV_AT_EPOCH":97670,"BSTAR":0.00063829546,"MEAN_MOTION_DOT":1.457e-5,"MEAN_MOTION_DDOT":0},{"OBJECT_NAME":"FENGYUN 1C DEB","OBJECT_ID":"1999-025BXA","EPOCH":"2026-03-05T22:19:41.465856","MEAN_MOTION":14.28622491,"ECCENTRICITY":0.01058345,"INCLINATION":99.0726,"RA_OF_ASC_NODE":241.8291,"ARG_OF_PERICENTER":345.7359,"MEAN_ANOMALY":14.0839,"EPHEMERIS_TYPE":0,"CLASSIFICATION_TYPE":"U","NORAD_CAT_ID":31511,"ELEMENT_SET_NO":999,"REV_AT_EPOCH":96988,"BSTAR":0.0007007235,"MEAN_MOTION_DOT":1.821e-5,"MEAN_MOTION_DDOT":0}]
