FENGYUN 1C DEB          
1 31482U 99025BVW 26064.96894410  .00002672  00000+0  89155-3 0  9999
2 31482  98.3845  71.5365 0090029  34.4718 355.7838 14.36033858983247
FENGYUN 1C DEB          
1 31483U 99025BVX 26065.21390250  .00008698  00000+0  40471-2 0  9993
2 31483 102.5078  53.8801 0120890  13.3017  57.0709 14.17134056958882
FENGYUN 1C DEB          
1 31484U 99025BVY 26065.37981939  .00030120  00000+0  65873-2 0  9999
2 31484 101.8102  40.5192 0072698 288.0058  71.3213 14.56033039654522
FENGYUN 1C DEB          
1 31485U 99025BVZ 26064.54606394  .00002512  00000+0  26303-2 0  9996
2 31485 102.7218 278.0167 0443083 139.7543 223.7278 13.40587057915544
FENGYUN 1C DEB          
1 31487U 99025BWB 26050.04952799  .00001431  00000+0  99543-3 0  9997
2 31487 102.4159 247.3023 0118571 143.4514   7.7230 13.98093462953666
FENGYUN 1C DEB          
1 31491U 99025BWE 26065.20180177  .00004102  00000+0  20027-2 0  9997
2 31491  99.3036 342.7045 0053052  31.2961 329.1352 14.17870998649101
FENGYUN 1C DEB          
1 31492U 99025BWF 26064.45152592  .00030474  00000+0  43143-2 0  9999
2 31492  98.8600 242.9635 0057354 112.7341 247.9942 14.75857135977248
FENGYUN 1C DEB          
1 31493U 99025BWG 26065.11690558  .00001488  00000+0  11150-2 0  9999
2 31493 100.1443  23.9017 0118520 317.0868  42.1087 13.93222755610274
FENGYUN 1C DEB          
1 31495U 99025BWJ 26063.44895226  .00004109  00000+0  16110-2 0  9998
2 31495  99.1161 305.4172 0026104 305.4864  54.3881 14.29805560645583
FENGYUN 1C DEB          
1 31497U 99025BWL 26063.22554812  .00000943  00000+0  26943-3 0  9997
2 31497  98.3806  49.9431 0168982  97.9546 329.9541 14.39361247987270
FENGYUN 1C DEB          
1 31498U 99025BWM 26065.37131974  .00002675  00000+0  22889-2 0  9994
2 31498  98.4926  32.8810 0217591 279.6829  77.9809 13.77495481938857
FENGYUN 1C DEB          
1 31507U 99025BWW 26065.55829218  .00002296  00000+0  52459-3 0  9996
2 31507  98.1836 100.7949 0116375 179.0134 337.9609 14.52572845992371
FENGYUN 1C DEB          
1 31508U 99025BWX 26065.26357522  .00017374  00000+0  31766-2 0  9999
2 31508  98.6265 182.7628 0030850  71.6944 288.7610 14.65640139981465
FENGYUN 1C DEB          
1 31509U 99025BWY 26065.57131215  .00002484  00000+0  15893-2 0  9992
2 31509  99.0209 188.0564 0195348 349.0912  10.6043 13.95415175951313
FENGYUN 1C DEB          
1 31510U 99025BWZ 26064.81928564  .00001457  00000+0  63830-3 0  9995
2 31510  98.5580  66.8825 0038885  87.4779  35.2114 14.24785896976705
FENGYUN 1C DEB          
1 31511U 99025BXA 26064.93034104  .00001821  00000+0  70072-3 0  9998
2 31511  99.0726 241.8291 0105834 345.7359  14.0839 14.28622491969884
